{"type": "FeatureCollection", "features": [ {"type": "Feature", "properties": {"norad_id": 36258, "name": "FENGYUN 1C DEB", "group": "fengyun-1c-debris", "lat": -34.00849545578974, "lon": -160.8675086976758, "alt_km": 699.3180644216227, "timestamp": "2025-12-20T20:38:44.731054+00:00", "meta": {"OBJECT_NAME": "FENGYUN 1C DEB", "OBJECT_ID": "1999-025DWK", "EPOCH": "2025-12-18T07:26:59.951040", "MEAN_MOTION": 14.74877851, "ECCENTRICITY": 0.01735744, "INCLINATION": 99.0864, "RA_OF_ASC_NODE": 22.4711, "ARG_OF_PERICENTER": 108.4242, "MEAN_ANOMALY": 253.592, "EPHEMERIS_TYPE": 0, "CLASSIFICATION_TYPE": "U", "NORAD_CAT_ID": 36258, "ELEMENT_SET_NO": 999, "REV_AT_EPOCH": 90904, "BSTAR": 0.00023742116, "MEAN_MOTION_DOT": 1.958e-05, "MEAN_MOTION_DDOT": 0}, "tle": {"line1": "1 36258U 99025DWK 25352.31041610  .00001958  00000+0  23742-3 0  9995", "line2": "2 36258  99.0864  22.4711 0173574 108.4242 253.5920 14.74877851909047"}}, "geometry": {"type": "Point", "coordinates": [-160.8675086976758, -34.00849545578974]}}, {"type": "Feature", "properties": {"norad_id": 36260, "name": "FENGYUN 1C DEB", "group": "fengyun-1c-debris", "lat": 65.42819619318028, "lon": -22.666321303105885, "alt_km": 844.7788931591922, "timestamp": "2025-12-20T20:38:44.731065+00:00", "meta": {"OBJECT_NAME": "FENGYUN 1C DEB", "OBJECT_ID": "1999-025DWM", "EPOCH": "2025-12-19T18:52:50.261376", "MEAN_MOTION": 14.15377772, "ECCENTRICITY": 0.00151871, "INCLINATION": 98.6611, "RA_OF_ASC_NODE": 355.7636, "ARG_OF_PERICENTER": 228.05, "MEAN_ANOMALY": 131.9381, "EPHEMERIS_TYPE": 0, "CLASSIFICATION_TYPE": "U", "NORAD_CAT_ID": 36260, "ELEMENT_SET_NO": 999, "REV_AT_EPOCH": 87908, "BSTAR": 0.00013548076, "MEAN_MOTION_DOT": 2.22e-06, "MEAN_MOTION_DDOT": 0}, "tle": {"line1": "1 36260U 99025DWM 25353.78669284  .00000222  00000+0  13548-3 0  9999", "line2": "2 36260  98.6611 355.7636 0015187 228.0500 131.9381 14.15377772879086"}}, "geometry": {"type": "Point", "coordinates": [-22.666321303105885, 65.42819619318028]}}, {"type": "Feature", "properties": {"norad_id": 36261, "name": "FENGYUN 1C DEB", "group": "fengyun-1c-debris", "lat": -53.88719827671587, "lon": -95.85760738586534, "alt_km": 1186.3133011667387, "timestamp": "2025-12-20T20:38:44.731075+00:00", "meta": {"OBJECT_NAME": "FENGYUN 1C DEB", "OBJECT_ID": "1999-025DWN", "EPOCH": "2025-12-19T11:00:43.184160", "MEAN_MOTION": 13.45486204, "ECCENTRICITY": 0.0355696, "INCLINATION": 101.3649, "RA_OF_ASC_NODE": 246.5536, "ARG_OF_PERICENTER": 59.662, "MEAN_ANOMALY": 303.9183, "EPHEMERIS_TYPE": 0, "CLASSIFICATION_TYPE": "U", "NORAD_CAT_ID": 36261, "ELEMENT_SET_NO": 999, "REV_AT_EPOCH": 84523, "BSTAR": 0.00049964, "MEAN_MOTION_DOT": 3.8e-06, "MEAN_MOTION_DDOT": 0}, "tle": {"line1": "1 36261U 99025DWN 25353.45883315  .00000380  00000+0  49964-3 0  9993", "line2": "2 36261 101.3649 246.5536 0355696  59.6620 303.9183 13.45486204845233"}}, "geometry": {"type": "Point", "coordinates": [-95.85760738586534, -53.88719827671587]}}, {"type": "Feature", "properties": {"norad_id": 36262, "name": "FENGYUN 1C DEB", "group": "fengyun-1c-debris", "lat": -43.67214309821825, "lon": 46.911399473527474, "alt_km": 767.47571541873, "timestamp": "2025-12-20T20:38:44.731085+00:00", "meta": {"OBJECT_NAME": "FENGYUN 1C DEB", "OBJECT_ID": "1999-025DWP", "EPOCH": "2025-12-20T09:30:11.047680", "MEAN_MOTION": 14.27815477, "ECCENTRICITY": 0.00597653, "INCLINATION": 98.9612, "RA_OF_ASC_NODE": 235.0995, "ARG_OF_PERICENTER": 252.8725, "MEAN_ANOMALY": 106.5905, "EPHEMERIS_TYPE": 0, "CLASSIFICATION_TYPE": "U", "NORAD_CAT_ID": 36262, "ELEMENT_SET_NO": 999, "REV_AT_EPOCH": 89606, "BSTAR": 0.00020370681, "MEAN_MOTION_DOT": 4.66e-06, "MEAN_MOTION_DDOT": 0}, "tle": {"line1": "1 36262U 99025DWP 25354.39596120  .00000466  00000+0  20371-3 0  9999", "line2": "2 36262  98.9612 235.0995 0059765 252.8725 106.5905 14.27815477896063"}}, "geometry": {"type": "Point", "coordinates": [46.911399473527474, -43.67214309821825]}}, {"type": "Feature", "properties": {"norad_id": 36263, "name": "FENGYUN 1C DEB", "group": "fengyun-1c-debris", "lat": -17.06426078476963, "lon": 53.613270999793244, "alt_km": 725.8749859071331, "timestamp": "2025-12-20T20:38:44.731095+00:00", "meta": {"OBJECT_NAME": "FENGYUN 1C DEB", "OBJECT_ID": "1999-025DWQ", "EPOCH": "2025-12-19T15:29:46.814208", "MEAN_MOTION": 14.45721747, "ECCENTRICITY": 0.00358298, "INCLINATION": 99.002, "RA_OF_ASC_NODE": 235.1146, "ARG_OF_PERICENTER": 244.0353, "MEAN_ANOMALY": 115.7144, "EPHEMERIS_TYPE": 0, "CLASSIFICATION_TYPE": "U", "NORAD_CAT_ID": 36263, "ELEMENT_SET_NO": 999, "REV_AT_EPOCH": 88085, "BSTAR": 0.0011248307, "MEAN_MOTION_DOT": 3.967e-05, "MEAN_MOTION_DDOT": 0}, "tle": {"line1": "1 36263U 99025DWQ 25353.64568072  .00003967  00000+0  11248-2 0  9993", "line2": "2 36263  99.0020 235.1146 0035829 244.0353 115.7144 14.45721747880856"}}, "geometry": {"type": "Point", "coordinates": [53.613270999793244, -17.06426078476963]}}, {"type": "Feature", "properties": {"norad_id": 36267, "name": "FENGYUN 1C DEB", "group": "fengyun-1c-debris", "lat": 65.33509197803271, "lon": -77.29762149783237, "alt_km": 901.5408916137367, "timestamp": "2025-12-20T20:38:44.731106+00:00", "meta": {"OBJECT_NAME": "FENGYUN 1C DEB", "OBJECT_ID": "1999-025DWU", "EPOCH": "2025-12-17T02:18:42.156000", "MEAN_MOTION": 14.09111328, "ECCENTRICITY": 0.0126413, "INCLINATION": 98.559, "RA_OF_ASC_NODE": 298.2704, "ARG_OF_PERICENTER": 197.9977, "MEAN_ANOMALY": 227.0895, "EPHEMERIS_TYPE": 0, "CLASSIFICATION_TYPE": "U", "NORAD_CAT_ID": 36267, "ELEMENT_SET_NO": 999, "REV_AT_EPOCH": 86591, "BSTAR": 0.00083999853, "MEAN_MOTION_DOT": 1.528e-05, "MEAN_MOTION_DDOT": 0}, "tle": {"line1": "1 36267U 99025DWU 25351.09632125  .00001528  00000+0  84000-3 0  9993", "line2": "2 36267  98.5590 298.2704 0126413 197.9977 227.0895 14.09111328865912"}}, "geometry": {"type": "Point", "coordinates": [-77.29762149783237, 65.33509197803271]}}, {"type": "Feature", "properties": {"norad_id": 36269, "name": "FENGYUN 1C DEB", "group": "fengyun-1c-debris", "lat": -12.517542033111452, "lon": -60.798151646206676, "alt_km": 805.0865854187614, "timestamp": "2025-12-20T20:38:44.731116+00:00", "meta": {"OBJECT_NAME": "FENGYUN 1C DEB", "OBJECT_ID": "1999-025DWW", "EPOCH": "2025-12-14T01:28:51.707712", "MEAN_MOTION": 14.27043075, "ECCENTRICITY": 0.02331074, "INCLINATION": 99.1079, "RA_OF_ASC_NODE": 290.0784, "ARG_OF_PERICENTER": 275.9651, "MEAN_ANOMALY": 81.5008, "EPHEMERIS_TYPE": 0, "CLASSIFICATION_TYPE": "U", "NORAD_CAT_ID": 36269, "ELEMENT_SET_NO": 999, "REV_AT_EPOCH": 87735, "BSTAR": 0.00079666975, "MEAN_MOTION_DOT": 2.532e-05, "MEAN_MOTION_DDOT": 0}, "tle": {"line1": "1 36269U 99025DWW 25348.06170958  .00002532  00000+0  79667-3 0  9998", "line2": "2 36269  99.1079 290.0784 0233107 275.9651  81.5008 14.27043075877359"}}, "geometry": {"type": "Point", "coordinates": [-60.798151646206676, -12.517542033111452]}}, {"type": "Feature", "properties": {"norad_id": 36272, "name": "FENGYUN 1C DEB", "group": "fengyun-1c-debris", "lat": 36.756843071651744, "lon": 58.27894991958673, "alt_km": 856.2225824020561, "timestamp": "2025-12-20T20:38:44.731126+00:00", "meta": {"OBJECT_NAME": "FENGYUN 1C DEB", "OBJECT_ID": "1999-025DWZ", "EPOCH": "2025-12-15T09:29:34.780416", "MEAN_MOTION": 14.17259115, "ECCENTRICITY": 0.01679127, "INCLINATION": 99.1362, "RA_OF_ASC_NODE": 225.7589, "ARG_OF_PERICENTER": 260.5869, "MEAN_ANOMALY": 97.6289, "EPHEMERIS_TYPE": 0, "CLASSIFICATION_TYPE": "U", "NORAD_CAT_ID": 36272, "ELEMENT_SET_NO": 999, "REV_AT_EPOCH": 63654, "BSTAR": 0.00052291356, "MEAN_MOTION_DOT": 1.164e-05, "MEAN_MOTION_DDOT": 0}, "tle": {"line1": "1 36272U 99025DWZ 25349.39554144  .00001164  00000+0  52291-3 0  9996", "line2": "2 36272  99.1362 225.7589 0167912 260.5869  97.6289 14.17259115636543"}}, "geometry": {"type": "Point", "coordinates": [58.27894991958673, 36.756843071651744]}}, {"type": "Feature", "properties": {"norad_id": 36273, "name": "FENGYUN 1C DEB", "group": "fengyun-1c-debris", "lat": 68.39950873510793, "lon": 70.26769263686623, "alt_km": 885.8406822373054, "timestamp": "2025-12-20T20:38:44.731136+00:00", "meta": {"OBJECT_NAME": "FENGYUN 1C DEB", "OBJECT_ID": "1999-025DXA", "EPOCH": "2025-12-10T21:07:00.418080", "MEAN_MOTION": 14.16564043, "ECCENTRICITY": 0.0096501, "INCLINATION": 99.6045, "RA_OF_ASC_NODE": 214.1863, "ARG_OF_PERICENTER": 353.8475, "MEAN_ANOMALY": 6.1504, "EPHEMERIS_TYPE": 0, "CLASSIFICATION_TYPE": "U", "NORAD_CAT_ID": 36273, "ELEMENT_SET_NO": 999, "REV_AT_EPOCH": 66207, "BSTAR": 0.00042955, "MEAN_MOTION_DOT": 8.45e-06, "MEAN_MOTION_DDOT": 0}, "tle": {"line1": "1 36273U 99025DXA 25344.87986595  .00000845  00000+0  42955-3 0  9995", "line2": "2 36273  99.6045 214.1863 0096501 353.8475   6.1504 14.16564043662078"}}, "geometry": {"type": "Point", "coordinates": [70.26769263686623, 68.39950873510793]}}, {"type": "Feature", "properties": {"norad_id": 36274, "name": "FENGYUN 1C DEB", "group": "fengyun-1c-debris", "lat": -33.48730879513098, "lon": 75.4453176326668, "alt_km": 840.7015634727413, "timestamp": "2025-12-20T20:38:44.731147+00:00", "meta": {"OBJECT_NAME": "FENGYUN 1C DEB", "OBJECT_ID": "1999-025DXB", "EPOCH": "2025-12-17T22:47:53.566656", "MEAN_MOTION": 14.23538115, "ECCENTRICITY": 0.00628177, "INCLINATION": 99.1393, "RA_OF_ASC_NODE": 66.31, "ARG_OF_PERICENTER": 216.0031, "MEAN_ANOMALY": 323.0496, "EPHEMERIS_TYPE": 0, "CLASSIFICATION_TYPE": "U", "NORAD_CAT_ID": 36274, "ELEMENT_SET_NO": 999, "REV_AT_EPOCH": 63059, "BSTAR": 0.0023477319, "MEAN_MOTION_DOT": 5.408e-05, "MEAN_MOTION_DDOT": 0}, "tle": {"line1": "1 36274U 99025DXB 25351.94992554  .00005408  00000+0  23477-2 0  9991", "line2": "2 36274  99.1393  66.3100 0062817 216.0031 323.0496 14.23538115630594"}}, "geometry": {"type": "Point", "coordinates": [75.4453176326668, -33.48730879513098]}}]}